1 45547U 20025S   22365.06976123  .00014987  00000-0  10221-2 0  9993
2 45547  53.0526 294.8130 0001713  65.1697 294.9470 15.06427403148977
1 45547U 20025S   22365.53418145  .00010968  00000-0  75336-3 0  9994
2 45547  53.0522 292.7280 0001909  65.4580 294.6608 15.06435831149635
1 45547U 20025S   23001.13130634  .00014376  00000-0  98217-3 0  9992
2 45547  53.0525 290.0475 0001506  65.9521 294.1625 15.06394365149133
1 45547U 20025S   23001.52938664  .00019352  00000-0  13143-2 0  9997
2 45547  53.0526 288.2598 0001482  68.2997 291.8150 15.06406135149782
1 45547U 20025S   23001.86112114  .00009433  00000-0  65124-3 0  9994
2 45547  53.0527 286.7710 0001536  70.6899 289.4256 15.06403748149833
1 45547U 20025S   23002.06016280  .00005564  00000-0  39218-3 0  9990
2 45547  53.0523 285.8780 0001524  59.0743 301.0395 15.06395881149273
1 45547U 20025S   23002.19285785  .00000089  00000-0  24907-4 0  9999
2 45547  53.0529 285.2825 0001627  58.8886 301.2262 15.06394150149882
1 45547U 20025S   23002.19285785  .00000089  00000-0  24907-4 0  9999
2 45547  53.0529 285.2825 0001627  58.8886 301.2262 15.06394150149297
1 45547U 20025S   23003.12172284  .00001978  00000-0  15170-3 0  9991
2 45547  53.0530 281.1109 0001515  69.1078 291.0073 15.06387477149439
1 45547U 20025S   23003.45345829  .00006552  00000-0  45838-3 0  9991
2 45547  53.0530 279.6220 0001483  69.0271 291.0877 15.06394791150074
1 45547U 20025S   23004.11694099  .00011573  00000-0  79503-3 0  9996
2 45547  53.0529 276.6438 0001746  71.2157 288.9021 15.06378142149582
1 45547U 20025S   23004.44866442  .00005646  00000-0  39761-3 0  9991
2 45547  53.0529 275.1547 0001522  72.6451 287.4704 15.06400411150221
1 45547U 20025S   23004.44866442  .00005646  00000-0  39761-3 0  9991
2 45547  53.0529 275.1547 0001522  72.6451 287.4704 15.06400411149634
1 45547U 20025S   23005.44386073  .00007829  00000-0  54370-3 0  9997
2 45547  53.0525 270.6871 0001478  75.4557 284.6596 15.06415302150374
1 45547U 20025S   23006.43906739 -.00002682  00000-0 -16128-3 0  9997
2 45547  53.0525 266.2194 0001611  76.1189 283.9979 15.06391453149938
1 45547U 20025S   23006.83714647  .00000218  00000-0  33564-4 0  9991
2 45547  53.0524 264.4322 0001487  77.5335 282.5820 15.06400087150586
1 45547U 20025S   23007.10253046  .00002409  00000-0  18055-3 0  9994
2 45547  53.0521 263.2409 0001499  76.3555 283.7601 15.06405894150626
1 45547U 20025S   23007.10253046  .00002409  00000-0  18055-3 0  9994
2 45547  53.0521 263.2409 0001499  76.3555 283.7601 15.06405894150031
1 45547U 20025S   23007.76600627 -.00001809  00000-0 -10261-3 0  9993
2 45547  53.0523 260.2619 0001409  77.1264 282.9882 15.06390484150131
1 45547U 20025S   23007.83235325 -.00001627  00000-0 -90363-4 0  9990
2 45547  53.0524 259.9643 0001408  76.7340 283.3806 15.06390857150734
1 45547U 20025S   23008.09774097 -.00000182  00000-0  66693-5 0  9997
2 45547  53.0517 258.7728 0001438  75.2570 284.8578 15.06393352150778
1 45547U 20025S   23008.96025309  .00001612  00000-0  12713-3 0  9998
2 45547  53.0515 254.9012 0001500  79.3817 280.7341 15.06395128150900
1 45547U 20025S   23009.09294544  .00001411  00000-0  11362-3 0  9998
2 45547  53.0517 254.3051 0001506  77.8046 282.3112 15.06398273150337
1 45547U 20025S   23009.49102415  .00002912  00000-0  21429-3 0  9999
2 45547  53.0516 252.5183 0001406  80.0472 280.0676 15.06403122150981
1 45547U 20025S   23009.95545860  .00002562  00000-0  19087-3 0  9993
2 45547  53.0517 250.4329 0001436  78.9924 281.1226 15.06393068151051
1 45547U 20025S   23010.35353494  .00003325  00000-0  24197-3 0  9995
2 45547  53.0517 248.6461 0001567  81.2722 278.8444 15.06402971150525
1 45547U 20025S   23010.48622936  .00002047  00000-0  15630-3 0  9991
2 45547  53.0521 248.0524 0001445  79.9028 280.2124 15.06400205151130
1 45547U 20025S   23010.75162120  .00000185  00000-0  31336-4 0  9998
2 45547  53.0509 246.8594 0001591  85.0216 275.0955 15.06392216151178
1 45547U 20025S   23010.75162120  .00000185  00000-0  31336-4 0  9998
2 45547  53.0509 246.8594 0001591  85.0216 275.0955 15.06392216150582
1 45547U 20025S   23011.34873573  .00002508  00000-0  18716-3 0  9992
2 45547  53.0510 244.1788 0001584  83.9041 276.2128 15.06406241151260
1 45547U 20025S   23011.34873573  .00002508  00000-0  18716-3 0  9992
2 45547  53.0510 244.1788 0001584  83.9041 276.2128 15.06406241150674
1 45547U 20025S   23011.61411869  .00004852  00000-0  34428-3 0  9990
2 45547  53.0509 242.9869 0001618  85.8628 274.2546 15.06412536151305
1 45547U 20025S   23011.94584784  .00006362  00000-0  44535-3 0  9991
2 45547  53.0508 241.4975 0001530  83.6904 276.4259 15.06419790150765
1 45547U 20025S   23012.60932482 -.00001002  00000-0 -48382-4 0  9990
2 45547  53.0510 238.5183 0001389 103.4174 256.6970 15.06393861150869
1 45547U 20025S   23012.94106398 -.00005380  00000-0 -34277-3 0  9996
2 45547  53.0506 237.0292 0001073  84.2450 275.8662 15.06379777151505
1 45547U 20025S   23012.94106398 -.00005380  00000-0 -34277-3 0  9996
2 45547  53.0506 237.0292 0001073  84.2450 275.8662 15.06379777150919
1 45547U 20025S   23013.33915125  .00003439  00000-0  24972-3 0  9998
2 45547  53.0511 235.2424 0001024  84.1834 275.9271 15.06383284151560
1 45547U 20025S   23013.86993440  .00015401  00000-0  10508-2 0  9993
2 45547  53.0512 232.8598 0001013  84.8204 275.2900 15.06390922151640
1 45547U 20025S   23014.00262834  .00015780  00000-0  10760-2 0  9996
2 45547  53.0513 232.2637 0001011  85.9090 274.2014 15.06395355151079
1 45547U 20025S   23014.33436460  .00011499  00000-0  78970-3 0  9991
2 45547  53.0512 230.7738 0001005  87.1211 272.9893 15.06396161151127
1 45547U 20025S   23014.86514114  .00008760  00000-0  60623-3 0  9995
2 45547  53.0514 228.3915 0001029  83.4617 276.6489 15.06400220151207
1 45547U 20025S   23015.59495374  .00006520  00000-0  45611-3 0  9994
2 45547  53.0514 225.1148 0001048  84.0550 276.0559 15.06406631151905
1 45547U 20025S   23015.86033823  .00006278  00000-0  43984-3 0  9992
2 45547  53.0514 223.9235 0001039  84.1755 275.9352 15.06410554151948
1 45547U 20025S   23015.86033823  .00006278  00000-0  43984-3 0  9992
2 45547  53.0514 223.9235 0001039  84.1755 275.9352 15.06410554151353
1 45547U 20025S   23016.25841954  .00003474  00000-0  25197-3 0  9999
2 45547  53.0507 222.1366 0001023  80.6053 279.5051 15.06406050151415
1 45547U 20025S   23016.59015666 -.00000875  00000-0 -39901-4 0  9992
2 45547  53.0517 220.6475 0001041  90.6265 269.4843 15.06395514152056
1 45547U 20025S   23016.59015666 -.00000875  00000-0 -39901-4 0  9992
2 45547  53.0517 220.6475 0001041  90.6265 269.4843 15.06395514151460
1 45547U 20025S   23016.92188959  .00000635  00000-0  61519-4 0  9997
2 45547  53.0521 219.1578 0001223  92.5308 267.5821 15.06400394152103
1 45547U 20025S   23016.98823416  .00003357  00000-0  24411-3 0  9990
2 45547  53.0534 218.8575 0000844  75.5421 284.5661 15.06405517151523
1 45547U 20025S   23017.58534805  .00006207  00000-0  43504-3 0  9999
2 45547  53.0503 216.1792 0001151  97.3928 262.7192 15.06415856152207
1 45547U 20025S   23017.98342054  .00005313  00000-0  37508-3 0  9990
2 45547  53.0510 214.3917 0001093  91.8348 268.2766 15.06422941151675
1 45547U 20025S   23018.24881687 -.00000190  00000-0  61632-5 0  9996
2 45547  53.0491 213.1984 0001821  82.3657 277.7538 15.06402335152309
1 45547U 20025S   23018.24881687 -.00000190  00000-0  61632-5 0  9996
2 45547  53.0491 213.1984 0001821  82.3657 277.7538 15.06402335151713
1 45547U 20025S   23018.84594207 -.00002610  00000-0 -15644-3 0  9991
2 45547  53.0519 210.5207 0001184  84.4292 275.6832 15.06391804152390
1 45547U 20025S   23018.84594207 -.00002610  00000-0 -15644-3 0  9991
2 45547  53.0519 210.5207 0001184  84.4292 275.6832 15.06391804151805
1 45547U 20025S   23019.50941393 -.00001513  00000-0 -82725-4 0  9993
2 45547  53.0518 207.5420 0001277  88.9992 271.1143 15.06394833152493
1 45547U 20025S   23020.50462484  .00002919  00000-0  21484-3 0  9997
2 45547  53.0513 203.0738 0001316  83.0392 277.0746 15.06391060152645
1 45547U 20025S   23020.50462484  .00002919  00000-0  21484-3 0  9997
2 45547  53.0513 203.0738 0001316  83.0392 277.0746 15.06391060152050
1 45547U 20025S   23021.69886740  .00004887  00000-0  34672-3 0  9992
2 45547  53.0508 197.7117 0001340  83.5337 276.5804 15.06404012152236
1 45547U 20025S   23022.49502918  .00001679  00000-0  13155-3 0  9992
2 45547  53.0507 194.1366 0001411  87.1848 272.9303 15.06400576152356
1 45547U 20025S   23023.42388593 -.00000636  00000-0 -23803-4 0  9993
2 45547  53.0515 189.9671 0001240  83.5898 276.5232 15.06396357152498
1 45547U 20025S   23024.15371936 -.00005060  00000-0 -32126-3 0  9990
2 45547  53.0517 186.6910 0001308  91.4558 268.6581 15.06371685152605
1 45547U 20025S   23024.68449225 -.00000280  00000-0  10731-6 0  9994
2 45547  53.0518 184.3080 0001093  89.6745 270.4369 15.06386243152686
1 45547U 20025S   23025.41430984  .00004251  00000-0  30411-3 0  9993
2 45547  53.0519 181.0311 0001170  92.6853 267.4270 15.06396709153381
1 45547U 20025S   23025.67969796  .00012632  00000-0  86518-3 0  9990
2 45547  53.0517 179.8401 0001113  90.3653 269.7464 15.06409564153423
1 45547U 20025S   23025.67969796  .00012632  00000-0  86518-3 0  9990
2 45547  53.0517 179.8401 0001113  90.3653 269.7464 15.06409564152837
1 45547U 20025S   23026.60854130  .00010188  00000-0  70132-3 0  9998
2 45547  53.0522 175.6711 0001247  87.1490 272.9642 15.06427108153561
1 45547U 20025S   23026.67488682  .00010467  00000-0  71996-3 0  9999
2 45547  53.0522 175.3733 0001247  86.9319 273.1812 15.06428450152987
1 45547U 20025S   23027.40469951  .00002529  00000-0  18855-3 0  9994
2 45547  53.0522 172.0972 0001321  81.9946 278.1193 15.06411421153090
1 45547U 20025S   23027.60373996  .00000885  00000-0  78265-4 0  9994
2 45547  53.0518 171.2028 0001427  76.6590 283.4558 15.06410824153710
1 45547U 20025S   23028.53259668 -.00000935  00000-0 -43853-4 0  9999
2 45547  53.0524 167.0326 0001385  93.2553 266.8594 15.06401000153269
1 45547U 20025S   23028.66529739  .00003920  00000-0  28204-3 0  9999
2 45547  53.0539 166.4378 0001596  94.8791 265.2380 15.06382869153874
1 45547U 20025S   23028.66529739  .00003920  00000-0  28204-3 0  9999
2 45547  53.0539 166.4378 0001596  94.8791 265.2380 15.06382869153289
1 45547U 20025S   23029.06337380 -.00001614  00000-0 -89484-4 0  9991
2 45547  53.0537 164.6505 0001410  89.6010 270.5140 15.06401049153342
1 45547U 20025S   23029.39511217  .00000178  00000-0  30880-4 0  9998
2 45547  53.0540 163.1610 0001562 100.4329 259.6836 15.06390524153390
1 45547U 20025S   23029.79319023  .00000695  00000-0  65585-4 0  9997
2 45547  53.0540 161.3741 0001538  97.0970 263.0194 15.06395477154042
1 45547U 20025S   23030.39031750  .00001210  00000-0  10013-3 0  9992
2 45547  53.0543 158.6933 0001475  93.4329 266.6829 15.06387918154130
1 45547U 20025S   23031.05378264  .00000949  00000-0  82635-4 0  9998
2 45547  53.0537 155.7149 0001459  86.3915 273.7241 15.06396678153649
1 45547U 20025S   23031.51821141  .00001161  00000-0  96859-4 0  9996
2 45547  53.0532 153.6302 0001391  89.6566 270.4582 15.06395463154302
